     2.100          NAVIGATION                              RINEX VERSION / TYPE
fic2rin                                 02/23/2011 00:04:08 PGM / RUN BY / DATE
                                                            END OF HEADER
 2 11  2 22 10  0  0.0  .321683473885D-03  .204636307899D-11  .000000000000D+00
     .890000000000D+02  .383437500000D+02  .474734060293D-08  .272478007668D+01
     .195205211639D-05  .100274401484D-01  .132378190756D-04  .515372210884D+04
     .208800000000D+06 -.214204192162D-06  .745819121034D+00 -.353902578354D-07
     .939400861839D+00  .111937500000D+03 -.307506702447D+01 -.797104631179D-08
    -.232152527227D-09  .100000000000D+01  .162400000000D+04  .000000000000D+00
     .240000000000D+01  .000000000000D+00 -.172294676304D-07  .890000000000D+02
     .201606000000D+06  .400000000000D+01
 3 11  2 22 10  0  0.0  .679363962263D-03  .511590769747D-11  .000000000000D+00
     .930000000000D+02 -.569062500000D+02  .557880380814D-08  .269927124728D+01
    -.305846333504D-05  .139830824919D-01  .571832060814D-05  .515363962173D+04
     .208800000000D+06  .558793544769D-08 -.410202567361D+00 -.201165676117D-06
     .928606311174D+00  .250062500000D+03  .107434871583D+01 -.838249202158D-08
    -.300726812193D-09  .100000000000D+01  .162400000000D+04  .000000000000D+00
     .340000000000D+01  .000000000000D+00 -.419095158577D-08  .930000000000D+02
     .201606000000D+06  .400000000000D+01
 4 11  2 22 10  0  0.0  .424250029027D-04  .102318153949D-10  .000000000000D+00
     .101000000000D+03  .426875000000D+02  .487448875631D-08 -.541417562043D+00
     .225380063057D-05  .960989028681D-02  .123865902424D-04  .515360619926D+04
     .208800000000D+06  .577419996262D-07  .763326480503D+00  .108033418655D-06
     .938487863444D+00  .128343750000D+03  .709617399144D+00 -.825998691875D-08
    -.225366530278D-09  .100000000000D+01  .162400000000D+04  .000000000000D+00
     .240000000000D+01  .000000000000D+00 -.605359673500D-08  .101000000000D+03
     .201606000000D+06  .400000000000D+01
 5 11  2 22 10  0  0.0 -.118638388813D-03 -.591171556152D-11  .000000000000D+00
     .740000000000D+02  .102187500000D+03  .480448584041D-08 -.184427622649D+01
     .523217022419D-05  .227597972844D-02  .559166073799D-05  .515362172508D+04
     .208800000000D+06 -.558793544769D-08  .180741576868D+01 -.484287738800D-07
     .954805582319D+00  .269250000000D+03  .278978482105D+00 -.840713590524D-08
     .243224416988D-09  .100000000000D+01  .162400000000D+04  .000000000000D+00
     .240000000000D+01  .000000000000D+00 -.977888703346D-08  .740000000000D+02
     .201606000000D+06  .400000000000D+01
 6 11  2 22 10  0  0.0 -.886074267328D-04 -.152340362547D-10  .000000000000D+00
     .950000000000D+02 -.511875000000D+02  .547629953843D-08 -.149263034483D+01
    -.266171991825D-05  .647636863869D-02  .669434666634D-05  .515364788437D+04
     .208800000000D+06 -.188127160072D-06 -.337351382873D+00 -.651925802231D-07
     .935832381861D+00  .239500000000D+03 -.857495645176D+00 -.860071539718D-08
    -.268939773850D-09  .100000000000D+01  .162400000000D+04  .000000000000D+00
     .340000000000D+01  .000000000000D+00 -.465661287308D-08  .950000000000D+02
     .201606000000D+06  .400000000000D+01
 7 11  2 22 10  0  0.0  .414019450545D-05  .795807864051D-12  .000000000000D+00
     .117000000000D+03 -.421250000000D+02  .392980654936D-08  .102193248978D+01
    -.214949250221D-05  .418115372304D-02  .118296593428D-04  .515368065071D+04
     .208800000000D+06  .130385160446D-07 -.237211190787D+01  .102445483208D-06
     .974018285874D+00  .157468750000D+03 -.310161903735D+01 -.779032449828D-08
     .119647840956D-09  .100000000000D+01  .162400000000D+04  .000000000000D+00
     .340000000000D+01  .000000000000D+00 -.107102096081D-07  .117000000000D+03
     .201606000000D+06  .400000000000D+01
 8 11  2 22 10  0  0.0  .744918361306D-05  .113686837722D-12  .000000000000D+00
     .700000000000D+02 -.407500000000D+02  .351728936636D-08  .493690017702D+00
    -.206008553505D-05  .114382950123D-01  .117644667625D-04  .515361995316D+04
     .208800000000D+06  .201165676117D-06 -.229858412377D+01  .119209289551D-06
     .995587791416D+00  .170218750000D+03 -.308586814657D+01 -.766031908304D-08
     .205008539429D-09  .100000000000D+01  .162400000000D+04  .000000000000D+00
     .340000000000D+01  .000000000000D+00 -.465661287308D-08  .700000000000D+02
     .201606000000D+06  .400000000000D+01
 9 11  2 22 10  0  0.0  .633778981864D-04  .238742359215D-11  .000000000000D+00
     .610000000000D+02 -.427187500000D+02  .387659004696D-08  .361341050848D+00
    -.231899321079D-05  .170302664628D-01  .108350068331D-04  .515368359184D+04
     .208800000000D+06 -.212341547012D-06 -.240125235387D+01 -.987201929092D-07
     .982999183850D+00  .187062500000D+03  .155716690129D+01 -.803104881113D-08
     .614311302817D-10  .100000000000D+01  .162400000000D+04  .000000000000D+00
     .340000000000D+01  .000000000000D+00 -.558793544769D-08  .610000000000D+02
     .201606000000D+06  .400000000000D+01
10 11  2 22 10  0  0.0 -.669546425343D-04 -.113686837722D-11  .000000000000D+00
     .370000000000D+02  .105031250000D+03  .492484799683D-08 -.157862615255D+01
     .541284680367D-05  .100897194352D-01  .459514558315D-05  .515357635307D+04
     .208800000000D+06  .188127160072D-06  .183165161797D+01 -.165775418282D-06
     .949773035871D+00  .284093750000D+03  .696889805583D+00 -.840570727430D-08
     .260725145963D-09  .100000000000D+01  .162400000000D+04  .000000000000D+00
     .340000000000D+01  .000000000000D+00 -.279396772385D-08  .370000000000D+02
     .201606000000D+06  .400000000000D+01
11 11  2 22 10  0  0.0 -.129161402583D-03 -.306954461848D-11  .000000000000D+00
     .540000000000D+02  .168750000000D+01  .620775857806D-08  .111601629758D+01
     .234693288803D-06  .116335739149D-01  .115055590868D-04  .515350128937D+04
     .208800000000D+06 -.121071934700D-06  .513433406494D+00  .143423676491D-06
     .888368124738D+00  .121500000000D+03  .911055443059D+00 -.888858453094D-08
    -.403588239642D-09  .100000000000D+01  .162400000000D+04  .000000000000D+00
     .240000000000D+01  .000000000000D+00 -.116415321827D-07  .540000000000D+02
     .201606000000D+06  .400000000000D+01
13 11  2 22 10  0  0.0  .281543005258D-03 -.136424205266D-11  .000000000000D+00
     .120000000000D+02 -.724687500000D+02  .395302180208D-08 -.273582678907D+01
    -.367127358913D-05  .452867976855D-02  .532157719135D-05  .515363950348D+04
     .208800000000D+06 -.186264514923D-08  .293517514814D+01  .670552253723D-07
     .990804156090D+00  .291750000000D+03  .178774596321D+01 -.795425989828D-08
    -.357514891930D-09  .100000000000D+01  .162400000000D+04  .000000000000D+00
     .240000000000D+01  .000000000000D+00 -.111758708954D-07  .120000000000D+02
     .201606000000D+06  .400000000000D+01
14 11  2 22 10  0  0.0  .133099965751D-03  .261479726760D-11  .000000000000D+00
     .490000000000D+02 -.569062500000D+02  .398338020949D-08 -.277331978047D+01
    -.287964940071D-05  .560858391691D-02  .521354377270D-05  .515363626862D+04
     .208800000000D+06  .614672899246D-07  .291160913538D+01 -.838190317154D-07
     .983880905057D+00  .290250000000D+03 -.208290621814D+01 -.792854454142D-08
    -.257867884090D-09  .100000000000D+01  .162400000000D+04  .000000000000D+00
     .240000000000D+01  .000000000000D+00 -.884756445885D-08  .490000000000D+02
     .201606000000D+06  .400000000000D+01
15 11  2 22 10  0  0.0 -.149231404066D-03  .341060513165D-11  .000000000000D+00
     .800000000000D+02 -.486875000000D+02  .491306179160D-08  .314149031808D+01
    -.247545540333D-05  .335843849462D-02  .390969216824D-05  .515357463837D+04
     .208800000000D+06  .558793544769D-08  .283890179963D+01  .819563865662D-07
     .951101678551D+00  .300625000000D+03 -.105502143799D+00 -.849821112746D-08
    -.291797868838D-09  .100000000000D+01  .162400000000D+04  .000000000000D+00
     .240000000000D+01  .000000000000D+00 -.977888703346D-08  .800000000000D+02
     .201606000000D+06  .400000000000D+01
16 11  2 22 10  0  0.0 -.152580440044D-03 -.295585778076D-11  .000000000000D+00
     .380000000000D+02  .224687500000D+02  .453126017375D-08 -.127034207562D+01
     .929459929466D-06  .618614675477D-02  .640191137791D-05  .515374693871D+04
     .208800000000D+06 -.596046447754D-07 -.129948299122D+01 -.800937414169D-07
     .974815375808D+00  .263156250000D+03 -.167174790884D+00 -.810926635492D-08
     .511092717635D-09  .100000000000D+01  .162400000000D+04  .000000000000D+00
     .240000000000D+01  .000000000000D+00 -.977888703346D-08  .380000000000D+02
     .201606000000D+06  .400000000000D+01
17 11  2 22 10  0  0.0  .183380674571D-03  .454747350886D-12  .000000000000D+00
     .990000000000D+02 -.574375000000D+02  .483198698594D-08 -.234856671683D+01
    -.291317701340D-05  .610491819680D-02  .735744833946D-05  .515371467018D+04
     .208800000000D+06  .104308128357D-06 -.256508338362D+00 -.651925802231D-07
     .961283389426D+00  .236281250000D+03 -.244574892806D+01 -.812069540242D-08
    -.323584907182D-09  .100000000000D+01  .162400000000D+04  .000000000000D+00
     .240000000000D+01  .000000000000D+00 -.102445483208D-07  .990000000000D+02
     .201606000000D+06  .400000000000D+01
18 11  2 22 10  0  0.0  .122867058963D-03  .204636307899D-11  .000000000000D+00
     .340000000000D+02  .865937500000D+02  .532986486741D-08 -.100600837780D+01
     .460259616375D-05  .119045529282D-01  .469945371151D-05  .515376478577D+04
     .208800000000D+06  .206753611565D-06  .182751381855D+01  .227242708206D-06
     .933690053904D+00  .275531250000D+03 -.227274339190D+01 -.869500503900D-08
     .871464871438D-10  .100000000000D+01  .162400000000D+04  .000000000000D+00
     .240000000000D+01  .000000000000D+00 -.107102096081D-07  .340000000000D+02
     .201606000000D+06  .400000000000D+01
